{"type": "FeatureCollection", "features": [ {"type": "Feature", "properties": {"norad_id": 35593, "name": "COSMOS 2251 DEB", "group": "cosmos-2251-debris", "lat": 46.4111495718048, "lon": -48.924154925133365, "alt_km": 825.1149845765976, "timestamp": "2025-12-09T20:37:09.686087+00:00", "meta": {"OBJECT_NAME": "COSMOS 2251 DEB", "OBJECT_ID": "1993-036AML", "EPOCH": "2025-12-09T13:39:16.919712", "MEAN_MOTION": 14.25575866, "ECCENTRICITY": 0.01053917, "INCLINATION": 74.0855, "RA_OF_ASC_NODE": 294.1568, "ARG_OF_PERICENTER": 301.2873, "MEAN_ANOMALY": 57.7986, "EPHEMERIS_TYPE": 0, "CLASSIFICATION_TYPE": "U", "NORAD_CAT_ID": 35593, "ELEMENT_SET_NO": 999, "REV_AT_EPOCH": 85020, "BSTAR": 0.0020176453, "MEAN_MOTION_DOT": 5.039e-05, "MEAN_MOTION_DDOT": 0}, "tle": {"line1": "1 35593U 93036AML 25343.56894583  .00005039  00000+0  20176-2 0  9995", "line2": "2 35593  74.0855 294.1568 0105391 301.2873  57.7986 14.25575866850200"}}, "geometry": {"type": "Point", "coordinates": [-48.924154925133365, 46.4111495718048]}}, {"type": "Feature", "properties": {"norad_id": 35594, "name": "COSMOS 2251 DEB", "group": "cosmos-2251-debris", "lat": 60.610033267392524, "lon": 143.42192298235412, "alt_km": 618.4543979710479, "timestamp": "2025-12-09T20:37:09.686097+00:00", "meta": {"OBJECT_NAME": "COSMOS 2251 DEB", "OBJECT_ID": "1993-036AMM", "EPOCH": "2025-12-09T02:34:25.968000", "MEAN_MOTION": 14.87749225, "ECCENTRICITY": 0.00305448, "INCLINATION": 73.8074, "RA_OF_ASC_NODE": 113.8828, "ARG_OF_PERICENTER": 225.3103, "MEAN_ANOMALY": 134.5588, "EPHEMERIS_TYPE": 0, "CLASSIFICATION_TYPE": "U", "NORAD_CAT_ID": 35594, "ELEMENT_SET_NO": 999, "REV_AT_EPOCH": 88131, "BSTAR": 0.0022507147, "MEAN_MOTION_DOT": 0.00020735, "MEAN_MOTION_DDOT": 0}, "tle": {"line1": "1 35594U 93036AMM 25343.10724500  .00020735  00000+0  22507-2 0  9997", "line2": "2 35594  73.8074 113.8828 0030544 225.3103 134.5588 14.87749225881314"}}, "geometry": {"type": "Point", "coordinates": [143.42192298235412, 60.610033267392524]}}, {"type": "Feature", "properties": {"norad_id": 35602, "name": "COSMOS 2251 DEB", "group": "cosmos-2251-debris", "lat": 45.47752874863226, "lon": -154.62111134773247, "alt_km": 511.83670114175584, "timestamp": "2025-12-09T20:37:09.686109+00:00", "meta": {"OBJECT_NAME": "COSMOS 2251 DEB", "OBJECT_ID": "1993-036AMV", "EPOCH": "2025-12-09T06:52:58.268064", "MEAN_MOTION": 15.34893397, "ECCENTRICITY": 0.0090202, "INCLINATION": 73.9935, "RA_OF_ASC_NODE": 189.6375, "ARG_OF_PERICENTER": 256.1847, "MEAN_ANOMALY": 230.0511, "EPHEMERIS_TYPE": 0, "CLASSIFICATION_TYPE": "U", "NORAD_CAT_ID": 35602, "ELEMENT_SET_NO": 999, "REV_AT_EPOCH": 90038, "BSTAR": 0.00059, "MEAN_MOTION_DOT": 0.00022844, "MEAN_MOTION_DDOT": 0}, "tle": {"line1": "1 35602U 93036AMV 25343.28678551  .00022844  00000+0  59000-3 0  9992", "line2": "2 35602  73.9935 189.6375 0090202 256.1847 230.0511 15.34893397900383"}}, "geometry": {"type": "Point", "coordinates": [-154.62111134773247, 45.47752874863226]}}, {"type": "Feature", "properties": {"norad_id": 35605, "name": "COSMOS 2251 DEB", "group": "cosmos-2251-debris", "lat": 62.30759198104286, "lon": 129.38681994232635, "alt_km": 481.035782809161, "timestamp": "2025-12-09T20:37:09.686119+00:00", "meta": {"OBJECT_NAME": "COSMOS 2251 DEB", "OBJECT_ID": "1993-036AMY", "EPOCH": "2025-12-08T17:29:07.135584", "MEAN_MOTION": 15.31836492, "ECCENTRICITY": 0.00282066, "INCLINATION": 73.8723, "RA_OF_ASC_NODE": 345.2823, "ARG_OF_PERICENTER": 280.9051, "MEAN_ANOMALY": 78.8978, "EPHEMERIS_TYPE": 0, "CLASSIFICATION_TYPE": "U", "NORAD_CAT_ID": 35605, "ELEMENT_SET_NO": 999, "REV_AT_EPOCH": 65910, "BSTAR": 0.0070125726, "MEAN_MOTION_DOT": 0.002247, "MEAN_MOTION_DDOT": 0}, "tle": {"line1": "1 35605U 93036AMY 25342.72855481  .00224700  00000+0  70126-2 0  9998", "line2": "2 35605  73.8723 345.2823 0028206 280.9051  78.8978 15.31836492659101"}}, "geometry": {"type": "Point", "coordinates": [129.38681994232635, 62.30759198104286]}}, {"type": "Feature", "properties": {"norad_id": 35606, "name": "COSMOS 2251 DEB", "group": "cosmos-2251-debris", "lat": -15.570039597014445, "lon": 10.74594228731769, "alt_km": 1280.8834051053336, "timestamp": "2025-12-09T20:37:09.686130+00:00", "meta": {"OBJECT_NAME": "COSMOS 2251 DEB", "OBJECT_ID": "1993-036AMZ", "EPOCH": "2025-12-09T08:10:26.094720", "MEAN_MOTION": 13.41205491, "ECCENTRICITY": 0.04577322, "INCLINATION": 73.8107, "RA_OF_ASC_NODE": 16.2149, "ARG_OF_PERICENTER": 222.4362, "MEAN_ANOMALY": 134.0496, "EPHEMERIS_TYPE": 0, "CLASSIFICATION_TYPE": "U", "NORAD_CAT_ID": 35606, "ELEMENT_SET_NO": 999, "REV_AT_EPOCH": 60994, "BSTAR": 0.0014727579, "MEAN_MOTION_DOT": 1.492e-05, "MEAN_MOTION_DDOT": 0}, "tle": {"line1": "1 35606U 93036AMZ 25343.34057980  .00001492  00000+0  14728-2 0  9993", "line2": "2 35606  73.8107  16.2149 0457732 222.4362 134.0496 13.41205491609945"}}, "geometry": {"type": "Point", "coordinates": [10.74594228731769, -15.570039597014445]}}, {"type": "Feature", "properties": {"norad_id": 35611, "name": "COSMOS 2251 DEB", "group": "cosmos-2251-debris", "lat": -0.4899451537245007, "lon": 5.056614351273301, "alt_km": 651.7028627976961, "timestamp": "2025-12-09T20:37:09.686141+00:00", "meta": {"OBJECT_NAME": "COSMOS 2251 DEB", "OBJECT_ID": "1993-036ANE", "EPOCH": "2025-12-07T23:46:52.346496", "MEAN_MOTION": 14.72654945, "ECCENTRICITY": 0.0021935, "INCLINATION": 74.0173, "RA_OF_ASC_NODE": 188.5564, "ARG_OF_PERICENTER": 261.817, "MEAN_ANOMALY": 98.0514, "EPHEMERIS_TYPE": 0, "CLASSIFICATION_TYPE": "U", "NORAD_CAT_ID": 35611, "ELEMENT_SET_NO": 999, "REV_AT_EPOCH": 87220, "BSTAR": 0.0026626176, "MEAN_MOTION_DOT": 0.00017044, "MEAN_MOTION_DDOT": 0}, "tle": {"line1": "1 35611U 93036ANE 25341.99088364  .00017044  00000+0  26626-2 0  9998", "line2": "2 35611  74.0173 188.5564 0021935 261.8170  98.0514 14.72654945872205"}}, "geometry": {"type": "Point", "coordinates": [5.056614351273301, -0.4899451537245007]}}, {"type": "Feature", "properties": {"norad_id": 35614, "name": "COSMOS 2251 DEB", "group": "cosmos-2251-debris", "lat": 0.33312258228344377, "lon": -26.855291392814948, "alt_km": 726.4329217312707, "timestamp": "2025-12-09T20:37:09.686179+00:00", "meta": {"OBJECT_NAME": "COSMOS 2251 DEB", "OBJECT_ID": "1993-036ANH", "EPOCH": "2025-12-08T16:47:37.057344", "MEAN_MOTION": 14.66956711, "ECCENTRICITY": 0.00760294, "INCLINATION": 73.959, "RA_OF_ASC_NODE": 335.2957, "ARG_OF_PERICENTER": 190.7656, "MEAN_ANOMALY": 169.189, "EPHEMERIS_TYPE": 0, "CLASSIFICATION_TYPE": "U", "NORAD_CAT_ID": 35614, "ELEMENT_SET_NO": 999, "REV_AT_EPOCH": 87670, "BSTAR": 0.0013359828, "MEAN_MOTION_DOT": 7.786e-05, "MEAN_MOTION_DDOT": 0}, "tle": {"line1": "1 35614U 93036ANH 25342.69973446  .00007786  00000+0  13360-2 0  9996", "line2": "2 35614  73.9590 335.2957 0076029 190.7656 169.1890 14.66956711876704"}}, "geometry": {"type": "Point", "coordinates": [-26.855291392814948, 0.33312258228344377]}}, {"type": "Feature", "properties": {"norad_id": 35645, "name": "COSMOS 2251 DEB", "group": "cosmos-2251-debris", "lat": -53.956179889579886, "lon": 69.84754242441299, "alt_km": 716.0376957361959, "timestamp": "2025-12-09T20:37:09.686201+00:00", "meta": {"OBJECT_NAME": "COSMOS 2251 DEB", "OBJECT_ID": "1993-036ANL", "EPOCH": "2025-12-09T14:14:21.450912", "MEAN_MOTION": 14.45503043, "ECCENTRICITY": 0.00695092, "INCLINATION": 73.9645, "RA_OF_ASC_NODE": 93.6246, "ARG_OF_PERICENTER": 251.7687, "MEAN_ANOMALY": 107.5897, "EPHEMERIS_TYPE": 0, "CLASSIFICATION_TYPE": "U", "NORAD_CAT_ID": 35645, "ELEMENT_SET_NO": 999, "REV_AT_EPOCH": 86726, "BSTAR": 0.0033944757, "MEAN_MOTION_DOT": 0.00012324, "MEAN_MOTION_DDOT": 0}, "tle": {"line1": "1 35645U 93036ANL 25343.59330383  .00012324  00000+0  33945-2 0  9992", "line2": "2 35645  73.9645  93.6246 0069509 251.7687 107.5897 14.45503043867269"}}, "geometry": {"type": "Point", "coordinates": [69.84754242441299, -53.956179889579886]}}, {"type": "Feature", "properties": {"norad_id": 35646, "name": "COSMOS 2251 DEB", "group": "cosmos-2251-debris", "lat": -52.01106711916516, "lon": -97.65385417867498, "alt_km": 949.4083344416422, "timestamp": "2025-12-09T20:37:09.686218+00:00", "meta": {"OBJECT_NAME": "COSMOS 2251 DEB", "OBJECT_ID": "1993-036ANM", "EPOCH": "2025-12-07T12:05:34.979712", "MEAN_MOTION": 13.4080565, "ECCENTRICITY": 0.04574175, "INCLINATION": 73.8717, "RA_OF_ASC_NODE": 64.3362, "ARG_OF_PERICENTER": 175.3742, "MEAN_ANOMALY": 210.5375, "EPHEMERIS_TYPE": 0, "CLASSIFICATION_TYPE": "U", "NORAD_CAT_ID": 35646, "ELEMENT_SET_NO": 999, "REV_AT_EPOCH": 81788, "BSTAR": 0.0018659149, "MEAN_MOTION_DOT": 1.884e-05, "MEAN_MOTION_DDOT": 0}, "tle": {"line1": "1 35646U 93036ANM 25341.50387708  .00001884  00000+0  18659-2 0  9999", "line2": "2 35646  73.8717  64.3362 0457417 175.3742 210.5375 13.40805650817887"}}, "geometry": {"type": "Point", "coordinates": [-97.65385417867498, -52.01106711916516]}}, {"type": "Feature", "properties": {"norad_id": 35647, "name": "COSMOS 2251 DEB", "group": "cosmos-2251-debris", "lat": 31.80647204374286, "lon": -49.83931137645235, "alt_km": 712.4588574461477, "timestamp": "2025-12-09T20:37:09.686238+00:00", "meta": {"OBJECT_NAME": "COSMOS 2251 DEB", "OBJECT_ID": "1993-036ANN", "EPOCH": "2025-12-06T04:19:05.390400", "MEAN_MOTION": 14.4357388, "ECCENTRICITY": 0.0045144, "INCLINATION": 74.0229, "RA_OF_ASC_NODE": 306.7667, "ARG_OF_PERICENTER": 47.5691, "MEAN_ANOMALY": 312.927, "EPHEMERIS_TYPE": 0, "CLASSIFICATION_TYPE": "U", "NORAD_CAT_ID": 35647, "ELEMENT_SET_NO": 999, "REV_AT_EPOCH": 67569, "BSTAR": 0.0014529978, "MEAN_MOTION_DOT": 4.961e-05, "MEAN_MOTION_DDOT": 0}, "tle": {"line1": "1 35647U 93036ANN 25340.17992350  .00004961  00000+0  14530-2 0  9990", "line2": "2 35647  74.0229 306.7667 0045144  47.5691 312.9270 14.43573880675696"}}, "geometry": {"type": "Point", "coordinates": [-49.83931137645235, 31.80647204374286]}}]}